{"type": "FeatureCollection", "features": [ {"type": "Feature", "properties": {"norad_id": 41556, "name": "ZIYUAN 3-02 (ZY 3-02)", "group": "resource", "lat": 35.3186117240422, "lon": 65.50422667885596, "alt_km": 507.58467274913073, "timestamp": "2025-12-22T18:58:53.078051+00:00", "meta": {"OBJECT_NAME": "ZIYUAN 3-02 (ZY 3-02)", "OBJECT_ID": "2016-033A", "EPOCH": "2025-12-22T06:11:41.974080", "MEAN_MOTION": 15.21182213, "ECCENTRICITY": 0.00111858, "INCLINATION": 97.4033, "RA_OF_ASC_NODE": 70.2665, "ARG_OF_PERICENTER": 210.3904, "MEAN_ANOMALY": 149.6685, "EPHEMERIS_TYPE": 0, "CLASSIFICATION_TYPE": "U", "NORAD_CAT_ID": 41556, "ELEMENT_SET_NO": 999, "REV_AT_EPOCH": 53108, "BSTAR": 0.00034264331, "MEAN_MOTION_DOT": 7.583e-05, "MEAN_MOTION_DDOT": 0}, "tle": {"line1": "1 41556U 16033A   25356.25812470  .00007583  00000+0  34264-3 0  9998", "line2": "2 41556  97.4033  70.2665 0011185 210.3904 149.6685 15.21182213531082"}}, "geometry": {"type": "Point", "coordinates": [65.50422667885596, 35.3186117240422]}}, {"type": "Feature", "properties": {"norad_id": 41599, "name": "CARTOSAT-2C", "group": "resource", "lat": -80.9385723721435, "lon": 178.51561413466047, "alt_km": 520.1438787418783, "timestamp": "2025-12-22T18:58:53.078061+00:00", "meta": {"OBJECT_NAME": "CARTOSAT-2C", "OBJECT_ID": "2016-040A", "EPOCH": "2025-12-21T18:06:24.689088", "MEAN_MOTION": 15.19188008, "ECCENTRICITY": 0.00110207, "INCLINATION": 97.4756, "RA_OF_ASC_NODE": 52.9115, "ARG_OF_PERICENTER": 34.9019, "MEAN_ANOMALY": 325.2936, "EPHEMERIS_TYPE": 0, "CLASSIFICATION_TYPE": "U", "NORAD_CAT_ID": 41599, "ELEMENT_SET_NO": 999, "REV_AT_EPOCH": 52677, "BSTAR": 0.00012803175, "MEAN_MOTION_DOT": 2.628e-05, "MEAN_MOTION_DDOT": 0}, "tle": {"line1": "1 41599U 16040A   25355.75445242  .00002628  00000+0  12803-3 0  9996", "line2": "2 41599  97.4756  52.9115 0011020  34.9019 325.2936 15.19188008526779"}}, "geometry": {"type": "Point", "coordinates": [178.51561413466047, -80.9385723721435]}}, {"type": "Feature", "properties": {"norad_id": 41601, "name": "SKYSAT-C1", "group": "resource", "lat": 82.16784543867722, "lon": -29.731619486719282, "alt_km": 460.41490565975437, "timestamp": "2025-12-22T18:58:53.078071+00:00", "meta": {"OBJECT_NAME": "SKYSAT-C1", "OBJECT_ID": "2016-040C", "EPOCH": "2025-12-22T01:22:14.024928", "MEAN_MOTION": 15.3274689, "ECCENTRICITY": 0.00012886, "INCLINATION": 96.9807, "RA_OF_ASC_NODE": 32.5455, "ARG_OF_PERICENTER": 340.6594, "MEAN_ANOMALY": 19.46, "EPHEMERIS_TYPE": 0, "CLASSIFICATION_TYPE": "U", "NORAD_CAT_ID": 41601, "ELEMENT_SET_NO": 999, "REV_AT_EPOCH": 53070, "BSTAR": 0.00031057891, "MEAN_MOTION_DOT": 9.752e-05, "MEAN_MOTION_DDOT": 0}, "tle": {"line1": "1 41601U 16040C   25356.05710677  .00009752  00000+0  31058-3 0  9999", "line2": "2 41601  96.9807  32.5455 0001288 340.6594  19.4600 15.32746890530707"}}, "geometry": {"type": "Point", "coordinates": [-29.731619486719282, 82.16784543867722]}}, {"type": "Feature", "properties": {"norad_id": 41603, "name": "LAPAN-A3", "group": "resource", "lat": -10.97641129519097, "lon": 172.58789390746196, "alt_km": 476.6255514302229, "timestamp": "2025-12-22T18:58:53.078082+00:00", "meta": {"OBJECT_NAME": "LAPAN-A3", "OBJECT_ID": "2016-040E", "EPOCH": "2025-12-22T05:36:20.341728", "MEAN_MOTION": 15.31624377, "ECCENTRICITY": 0.00088051, "INCLINATION": 97.1427, "RA_OF_ASC_NODE": 353.4444, "ARG_OF_PERICENTER": 294.9715, "MEAN_ANOMALY": 65.0612, "EPHEMERIS_TYPE": 0, "CLASSIFICATION_TYPE": "U", "NORAD_CAT_ID": 41603, "ELEMENT_SET_NO": 999, "REV_AT_EPOCH": 52771, "BSTAR": 0.00014270278, "MEAN_MOTION_DOT": 4.287e-05, "MEAN_MOTION_DDOT": 0}, "tle": {"line1": "1 41603U 16040E   25356.23356877  .00004287  00000+0  14270-3 0  9994", "line2": "2 41603  97.1427 353.4444 0008805 294.9715  65.0612 15.31624377527712"}}, "geometry": {"type": "Point", "coordinates": [172.58789390746196, -10.97641129519097]}}, {"type": "Feature", "properties": {"norad_id": 41604, "name": "BIROS", "group": "resource", "lat": 23.176562958827773, "lon": 25.609893630599036, "alt_km": 292.79733185949226, "timestamp": "2025-12-22T18:58:53.078093+00:00", "meta": {"OBJECT_NAME": "BIROS", "OBJECT_ID": "2016-040F", "EPOCH": "2025-12-21T20:16:27.693408", "MEAN_MOTION": 15.93143853, "ECCENTRICITY": 0.00037129, "INCLINATION": 97.0682, "RA_OF_ASC_NODE": 27.6655, "ARG_OF_PERICENTER": 133.3571, "MEAN_ANOMALY": 226.8015, "EPHEMERIS_TYPE": 0, "CLASSIFICATION_TYPE": "U", "NORAD_CAT_ID": 41604, "ELEMENT_SET_NO": 999, "REV_AT_EPOCH": 53017, "BSTAR": 0.00065293224, "MEAN_MOTION_DOT": 0.00227507, "MEAN_MOTION_DDOT": 2.144608e-05}, "tle": {"line1": "1 41604U 16040F   25355.84476497  .00227507  21446-4  65293-3 0  9997", "line2": "2 41604  97.0682  27.6655 0003712 133.3571 226.8015 15.93143853530178"}}, "geometry": {"type": "Point", "coordinates": [25.609893630599036, 23.176562958827773]}}, {"type": "Feature", "properties": {"norad_id": 41727, "name": "GAOFEN-3", "group": "resource", "lat": -19.908729605835454, "lon": 5.292519027996327, "alt_km": 756.1060259605292, "timestamp": "2025-12-22T18:58:53.078103+00:00", "meta": {"OBJECT_NAME": "GAOFEN-3", "OBJECT_ID": "2016-049A", "EPOCH": "2025-12-22T07:25:08.545152", "MEAN_MOTION": 14.42216214, "ECCENTRICITY": 0.00011974, "INCLINATION": 98.403, "RA_OF_ASC_NODE": 1.7494, "ARG_OF_PERICENTER": 56.2442, "MEAN_ANOMALY": 303.8861, "EPHEMERIS_TYPE": 0, "CLASSIFICATION_TYPE": "U", "NORAD_CAT_ID": 41727, "ELEMENT_SET_NO": 999, "REV_AT_EPOCH": 49315, "BSTAR": 6.8673312e-05, "MEAN_MOTION_DOT": 1.83e-06, "MEAN_MOTION_DDOT": 0}, "tle": {"line1": "1 41727U 16049A   25356.30912668  .00000183  00000+0  68673-4 0  9992", "line2": "2 41727  98.4030   1.7494 0001197  56.2442 303.8861 14.42216214493151"}}, "geometry": {"type": "Point", "coordinates": [5.292519027996327, -19.908729605835454]}}, {"type": "Feature", "properties": {"norad_id": 41771, "name": "SKYSAT-C4", "group": "resource", "lat": 12.225160212521972, "lon": 19.979086482489727, "alt_km": 440.68545626186096, "timestamp": "2025-12-22T18:58:53.078114+00:00", "meta": {"OBJECT_NAME": "SKYSAT-C4", "OBJECT_ID": "2016-058B", "EPOCH": "2025-12-22T01:48:06.895584", "MEAN_MOTION": 15.42499501, "ECCENTRICITY": 0.00023097, "INCLINATION": 96.936, "RA_OF_ASC_NODE": 20.8093, "ARG_OF_PERICENTER": 127.7671, "MEAN_ANOMALY": 232.3787, "EPHEMERIS_TYPE": 0, "CLASSIFICATION_TYPE": "U", "NORAD_CAT_ID": 41771, "ELEMENT_SET_NO": 999, "REV_AT_EPOCH": 51811, "BSTAR": 0.00035886793, "MEAN_MOTION_DOT": 0.00015486, "MEAN_MOTION_DDOT": 0}, "tle": {"line1": "1 41771U 16058B   25356.07507981  .00015486  00000+0  35887-3 0  9995", "line2": "2 41771  96.9360  20.8093 0002309 127.7671 232.3787 15.42499501518110"}}, "geometry": {"type": "Point", "coordinates": [19.979086482489727, 12.225160212521972]}}, {"type": "Feature", "properties": {"norad_id": 41772, "name": "SKYSAT-C5", "group": "resource", "lat": -12.823032202362, "lon": 41.74223947724656, "alt_km": 468.95940890082056, "timestamp": "2025-12-22T18:58:53.078124+00:00", "meta": {"OBJECT_NAME": "SKYSAT-C5", "OBJECT_ID": "2016-058C", "EPOCH": "2025-12-22T01:49:00.968160", "MEAN_MOTION": 15.34032906, "ECCENTRICITY": 0.00038149, "INCLINATION": 97.0741, "RA_OF_ASC_NODE": 39.4372, "ARG_OF_PERICENTER": 246.7758, "MEAN_ANOMALY": 113.3085, "EPHEMERIS_TYPE": 0, "CLASSIFICATION_TYPE": "U", "NORAD_CAT_ID": 41772, "ELEMENT_SET_NO": 999, "REV_AT_EPOCH": 51659, "BSTAR": 0.00030067318, "MEAN_MOTION_DOT": 9.83e-05, "MEAN_MOTION_DDOT": 0}, "tle": {"line1": "1 41772U 16058C   25356.07570565  .00009830  00000+0  30067-3 0  9995", "line2": "2 41772  97.0741  39.4372 0003814 246.7758 113.3085 15.34032906516594"}}, "geometry": {"type": "Point", "coordinates": [41.74223947724656, -12.823032202362]}}, {"type": "Feature", "properties": {"norad_id": 41773, "name": "SKYSAT-C2", "group": "resource", "lat": 62.7327823287351, "lon": -145.2458042998144, "alt_km": 448.26893010567346, "timestamp": "2025-12-22T18:58:53.078139+00:00", "meta": {"OBJECT_NAME": "SKYSAT-C2", "OBJECT_ID": "2016-058D", "EPOCH": "2025-12-22T07:32:35.189952", "MEAN_MOTION": 15.3747422, "ECCENTRICITY": 0.00031479, "INCLINATION": 97.0347, "RA_OF_ASC_NODE": 20.4355, "ARG_OF_PERICENTER": 6.5378, "MEAN_ANOMALY": 353.5908, "EPHEMERIS_TYPE": 0, "CLASSIFICATION_TYPE": "U", "NORAD_CAT_ID": 41773, "ELEMENT_SET_NO": 999, "REV_AT_EPOCH": 51783, "BSTAR": 0.00034148155, "MEAN_MOTION_DOT": 0.0001248, "MEAN_MOTION_DDOT": 0}, "tle": {"line1": "1 41773U 16058D   25356.31429618  .00012480  00000+0  34148-3 0  9994", "line2": "2 41773  97.0347  20.4355 0003147   6.5378 353.5908 15.37474220517839"}}, "geometry": {"type": "Point", "coordinates": [-145.2458042998144, 62.7327823287351]}}, {"type": "Feature", "properties": {"norad_id": 41774, "name": "SKYSAT-C3", "group": "resource", "lat": -24.55395737718522, "lon": -153.1144261256926, "alt_km": 438.076057028431, "timestamp": "2025-12-22T18:58:53.078149+00:00", "meta": {"OBJECT_NAME": "SKYSAT-C3", "OBJECT_ID": "2016-058E", "EPOCH": "2025-12-22T02:33:05.139936", "MEAN_MOTION": 15.44711366, "ECCENTRICITY": 0.00020568, "INCLINATION": 96.9285, "RA_OF_ASC_NODE": 29.4174, "ARG_OF_PERICENTER": 107.2334, "MEAN_ANOMALY": 252.9141, "EPHEMERIS_TYPE": 0, "CLASSIFICATION_TYPE": "U", "NORAD_CAT_ID": 41774, "ELEMENT_SET_NO": 999, "REV_AT_EPOCH": 51870, "BSTAR": 0.00042430023, "MEAN_MOTION_DOT": 0.00019752, "MEAN_MOTION_DDOT": 0}, "tle": {"line1": "1 41774U 16058E   25356.10630949  .00019752  00000+0  42430-3 0  9995", "line2": "2 41774  96.9285  29.4174 0002056 107.2334 252.9141 15.44711366518707"}}, "geometry": {"type": "Point", "coordinates": [-153.1144261256926, -24.55395737718522]}}]}